EUTELSAT 16A            
1 37836U 11057A   25208.91085653  .00000097  00000+0  00000+0 0  9999
2 37836   0.0632   0.2771 0005546 125.8163 163.6194  1.00270423  4073
EUTELSAT 21B            
1 38992U 12062B   25208.92961596  .00000123  00000+0  00000+0 0  9990
2 38992   0.0662   0.9489 0002983 120.4702 180.6718  1.00269973 46575
EUTELSAT 70B            
1 39020U 12069A   25208.91395749 -.00000050  00000+0  00000+0 0  9990
2 39020   0.0619   1.7434 0003570 125.1678 218.4245  1.00271323 46258
EUTELSAT 117 WEST A     
1 39122U 13012A   25208.88439572 -.00000019  00000+0  00000+0 0  9996
2 39122   0.0149  60.9197 0002877  72.3137  14.1283  1.00271589 45182
EUTELSAT 7B             
1 39163U 13022A   25209.05322389  .00000042  00000+0  00000+0 0  9994
2 39163   0.0780 328.1480 0002879  79.7225 284.2361  1.00273248 44701
EXPRESS-AT1             
1 39612U 14010A   25208.91874324  .00000071  00000+0  00000+0 0  9998
2 39612   0.0166  78.5845 0000477 298.6264 315.3790  1.00271174 41565
EXPRESS-AT2             
1 39613U 14010B   25208.86411563 -.00000289  00000+0  00000+0 0  9997
2 39613   0.0125  72.0179 0000310  53.8313 270.8672  1.00269468 41244
EUTELSAT 3B             
1 39773U 14030A   25208.90825653  .00000013  00000+0  00000+0 0  9994
2 39773   0.0611   3.1189 0004028 130.1722 142.5771  1.00271083 40813
